CCSDS_OMM_VERS = 2.0
CREATION_DATE  = 
ORIGINATOR     = 

OBJECT_NAME    = STARLINK-36031
OBJECT_ID      = 2025-270F
CENTER_NAME    = EARTH
REF_FRAME      = TEME
TIME_SYSTEM    = UTC
MEAN_ELEMENT_THEORY = SGP/SGP4

EPOCH          = 2025-12-07T06:00:04.999968
MEAN_MOTION    = 15.65717206
ECCENTRICITY   = .00014639
INCLINATION    = 42.9993
RA_OF_ASC_NODE = 225.0508
ARG_OF_PERICENTER = 259.4391
MEAN_ANOMALY   = 322.2368

EPHEMERIS_TYPE = 0
CLASSIFICATION_TYPE = U
NORAD_CAT_ID   = 66593
ELEMENT_SET_NO = 999
REV_AT_EPOCH   = 351
BSTAR          = -.21758484E-1
MEAN_MOTION_DOT = -.1991586E-1
MEAN_MOTION_DDOT = 0

CCSDS_OMM_VERS = 2.0
CREATION_DATE  = 
ORIGINATOR     = 

OBJECT_NAME    = STARLINK-36032
OBJECT_ID      = 2025-270G
CENTER_NAME    = EARTH
REF_FRAME      = TEME
TIME_SYSTEM    = UTC
MEAN_ELEMENT_THEORY = SGP/SGP4

EPOCH          = 2025-12-07T06:00:04.999968
MEAN_MOTION    = 15.65715111
ECCENTRICITY   = .00014025
INCLINATION    = 42.9992
RA_OF_ASC_NODE = 225.0459
ARG_OF_PERICENTER = 258.0710
MEAN_ANOMALY   = 325.5232

EPHEMERIS_TYPE = 0
CLASSIFICATION_TYPE = U
NORAD_CAT_ID   = 66594
ELEMENT_SET_NO = 999
REV_AT_EPOCH   = 325
BSTAR          = -.21715866E-1
MEAN_MOTION_DOT = -.198796E-1
MEAN_MOTION_DDOT = 0

CCSDS_OMM_VERS = 2.0
CREATION_DATE  = 
ORIGINATOR     = 

OBJECT_NAME    = STARLINK-35711
OBJECT_ID      = 2025-270H
CENTER_NAME    = EARTH
REF_FRAME      = TEME
TIME_SYSTEM    = UTC
MEAN_ELEMENT_THEORY = SGP/SGP4

EPOCH          = 2025-12-07T06:00:04.999968
MEAN_MOTION    = 15.65717348
ECCENTRICITY   = .00014929
INCLINATION    = 42.9991
RA_OF_ASC_NODE = 225.0407
ARG_OF_PERICENTER = 261.1096
MEAN_ANOMALY   = 324.4006

EPHEMERIS_TYPE = 0
CLASSIFICATION_TYPE = U
NORAD_CAT_ID   = 66595
ELEMENT_SET_NO = 999
REV_AT_EPOCH   = 362
BSTAR          = -.21760645E-1
MEAN_MOTION_DOT = -.1991792E-1
MEAN_MOTION_DDOT = 0

CCSDS_OMM_VERS = 2.0
CREATION_DATE  = 
ORIGINATOR     = 

OBJECT_NAME    = STARLINK-35811
OBJECT_ID      = 2025-270J
CENTER_NAME    = EARTH
REF_FRAME      = TEME
TIME_SYSTEM    = UTC
MEAN_ELEMENT_THEORY = SGP/SGP4

EPOCH          = 2025-12-07T06:00:04.999968
MEAN_MOTION    = 15.65714731
ECCENTRICITY   = .00014226
INCLINATION    = 42.9992
RA_OF_ASC_NODE = 225.0360
ARG_OF_PERICENTER = 258.8988
MEAN_ANOMALY   = 328.5304

EPHEMERIS_TYPE = 0
CLASSIFICATION_TYPE = U
NORAD_CAT_ID   = 66596
ELEMENT_SET_NO = 999
REV_AT_EPOCH   = 362
BSTAR          = -.217182E-1
MEAN_MOTION_DOT = -.1988137E-1
MEAN_MOTION_DDOT = 0

CCSDS_OMM_VERS = 2.0
CREATION_DATE  = 
ORIGINATOR     = 

OBJECT_NAME    = STARLINK-35820
OBJECT_ID      = 2025-270K
CENTER_NAME    = EARTH
REF_FRAME      = TEME
TIME_SYSTEM    = UTC
MEAN_ELEMENT_THEORY = SGP/SGP4

EPOCH          = 2025-12-07T06:00:04.999968
MEAN_MOTION    = 15.65717250
ECCENTRICITY   = .00014742
INCLINATION    = 42.9992
RA_OF_ASC_NODE = 225.0311
ARG_OF_PERICENTER = 259.7617
MEAN_ANOMALY   = 329.5846

EPHEMERIS_TYPE = 0
CLASSIFICATION_TYPE = U
NORAD_CAT_ID   = 66597
ELEMENT_SET_NO = 999
REV_AT_EPOCH   = 362
BSTAR          = -.21775473E-1
MEAN_MOTION_DOT = -.1992963E-1
MEAN_MOTION_DDOT = 0

CCSDS_OMM_VERS = 2.0
CREATION_DATE  = 
ORIGINATOR     = 

OBJECT_NAME    = STARLINK-35981
OBJECT_ID      = 2025-270L
CENTER_NAME    = EARTH
REF_FRAME      = TEME
TIME_SYSTEM    = UTC
MEAN_ELEMENT_THEORY = SGP/SGP4

EPOCH          = 2025-12-07T06:00:04.999968
MEAN_MOTION    = 15.65718702
ECCENTRICITY   = .00015038
INCLINATION    = 42.9994
RA_OF_ASC_NODE = 225.0261
ARG_OF_PERICENTER = 258.5250
MEAN_ANOMALY   = 332.7351

EPHEMERIS_TYPE = 0
CLASSIFICATION_TYPE = U
NORAD_CAT_ID   = 66598
ELEMENT_SET_NO = 999
REV_AT_EPOCH   = 335
BSTAR          = -.21776402E-1
MEAN_MOTION_DOT = -.1993164E-1
MEAN_MOTION_DDOT = 0

CCSDS_OMM_VERS = 2.0
CREATION_DATE  = 
ORIGINATOR     = 

OBJECT_NAME    = STARLINK-35930
OBJECT_ID      = 2025-270M
CENTER_NAME    = EARTH
REF_FRAME      = TEME
TIME_SYSTEM    = UTC
MEAN_ELEMENT_THEORY = SGP/SGP4

EPOCH          = 2025-12-07T06:00:04.999968
MEAN_MOTION    = 15.65717886
ECCENTRICITY   = .00014855
INCLINATION    = 42.9993
RA_OF_ASC_NODE = 225.0221
ARG_OF_PERICENTER = 258.9289
MEAN_ANOMALY   = 334.2481

EPHEMERIS_TYPE = 0
CLASSIFICATION_TYPE = U
NORAD_CAT_ID   = 66599
ELEMENT_SET_NO = 999
REV_AT_EPOCH   = 351
BSTAR          = -.21745346E-1
MEAN_MOTION_DOT = -.1990594E-1
MEAN_MOTION_DDOT = 0

CCSDS_OMM_VERS = 2.0
CREATION_DATE  = 
ORIGINATOR     = 

OBJECT_NAME    = STARLINK-35980
OBJECT_ID      = 2025-270N
CENTER_NAME    = EARTH
REF_FRAME      = TEME
TIME_SYSTEM    = UTC
MEAN_ELEMENT_THEORY = SGP/SGP4

EPOCH          = 2025-12-07T06:00:04.999968
MEAN_MOTION    = 15.65716740
ECCENTRICITY   = .00014885
INCLINATION    = 42.9993
RA_OF_ASC_NODE = 225.0171
ARG_OF_PERICENTER = 258.5215
MEAN_ANOMALY   = 336.5739

EPHEMERIS_TYPE = 0
CLASSIFICATION_TYPE = U
NORAD_CAT_ID   = 66600
ELEMENT_SET_NO = 999
REV_AT_EPOCH   = 341
BSTAR          = -.21737261E-1
MEAN_MOTION_DOT = -.1989864E-1
MEAN_MOTION_DDOT = 0

CCSDS_OMM_VERS = 2.0
CREATION_DATE  = 
ORIGINATOR     = 

OBJECT_NAME    = STARLINK-35978
OBJECT_ID      = 2025-270P
CENTER_NAME    = EARTH
REF_FRAME      = TEME
TIME_SYSTEM    = UTC
MEAN_ELEMENT_THEORY = SGP/SGP4

EPOCH          = 2025-12-07T06:00:04.999968
MEAN_MOTION    = 15.65715678
ECCENTRICITY   = .00014875
INCLINATION    = 42.9992
RA_OF_ASC_NODE = 225.0123
ARG_OF_PERICENTER = 258.3371
MEAN_ANOMALY   = 338.6764

EPHEMERIS_TYPE = 0
CLASSIFICATION_TYPE = U
NORAD_CAT_ID   = 66601
ELEMENT_SET_NO = 999
REV_AT_EPOCH   = 335
BSTAR          = -.21727827E-1
MEAN_MOTION_DOT = -.1989029E-1
MEAN_MOTION_DDOT = 0

CCSDS_OMM_VERS = 2.0
CREATION_DATE  = 
ORIGINATOR     = 

OBJECT_NAME    = STARLINK-36050
OBJECT_ID      = 2025-270Q
CENTER_NAME    = EARTH
REF_FRAME      = TEME
TIME_SYSTEM    = UTC
MEAN_ELEMENT_THEORY = SGP/SGP4

EPOCH          = 2025-12-07T06:00:04.999968
MEAN_MOTION    = 15.65718199
ECCENTRICITY   = .00015055
INCLINATION    = 42.9991
RA_OF_ASC_NODE = 225.0071
ARG_OF_PERICENTER = 259.4874
MEAN_ANOMALY   = 339.4414

EPHEMERIS_TYPE = 0
CLASSIFICATION_TYPE = U
NORAD_CAT_ID   = 66602
ELEMENT_SET_NO = 999
REV_AT_EPOCH   = 341
BSTAR          = -.21756628E-1
MEAN_MOTION_DOT = -.1991539E-1
MEAN_MOTION_DDOT = 0

CCSDS_OMM_VERS = 2.0
CREATION_DATE  = 
ORIGINATOR     = 

OBJECT_NAME    = STARLINK-36048
OBJECT_ID      = 2025-270R
CENTER_NAME    = EARTH
REF_FRAME      = TEME
TIME_SYSTEM    = UTC
MEAN_ELEMENT_THEORY = SGP/SGP4

EPOCH          = 2025-12-07T06:00:04.999968
MEAN_MOTION    = 15.65719317
ECCENTRICITY   = .00015811
INCLINATION    = 42.9990
RA_OF_ASC_NODE = 225.0025
ARG_OF_PERICENTER = 263.5526
MEAN_ANOMALY   = 337.2935

EPHEMERIS_TYPE = 0
CLASSIFICATION_TYPE = U
NORAD_CAT_ID   = 66603
ELEMENT_SET_NO = 999
REV_AT_EPOCH   = 341
BSTAR          = -.21793682E-1
MEAN_MOTION_DOT = -.1994659E-1
MEAN_MOTION_DDOT = 0

CCSDS_OMM_VERS = 2.0
CREATION_DATE  = 
ORIGINATOR     = 

OBJECT_NAME    = STARLINK-35977
OBJECT_ID      = 2025-270S
CENTER_NAME    = EARTH
REF_FRAME      = TEME
TIME_SYSTEM    = UTC
MEAN_ELEMENT_THEORY = SGP/SGP4

EPOCH          = 2025-12-07T06:00:04.999968
MEAN_MOTION    = 15.65721487
ECCENTRICITY   = .00015624
INCLINATION    = 42.9990
RA_OF_ASC_NODE = 224.9971
ARG_OF_PERICENTER = 259.9029
MEAN_ANOMALY   = 342.8591

EPHEMERIS_TYPE = 0
CLASSIFICATION_TYPE = U
NORAD_CAT_ID   = 66604
ELEMENT_SET_NO = 999
REV_AT_EPOCH   = 351
BSTAR          = -.21823746E-1
MEAN_MOTION_DOT = -.1997216E-1
MEAN_MOTION_DDOT = 0

CCSDS_OMM_VERS = 2.0
CREATION_DATE  = 
ORIGINATOR     = 

OBJECT_NAME    = STARLINK-36052
OBJECT_ID      = 2025-270T
CENTER_NAME    = EARTH
REF_FRAME      = TEME
TIME_SYSTEM    = UTC
MEAN_ELEMENT_THEORY = SGP/SGP4

EPOCH          = 2025-12-07T06:00:04.999968
MEAN_MOTION    = 15.65717395
ECCENTRICITY   = .00015318
INCLINATION    = 42.9991
RA_OF_ASC_NODE = 224.9925
ARG_OF_PERICENTER = 259.2516
MEAN_ANOMALY   = 345.4303

EPHEMERIS_TYPE = 0
CLASSIFICATION_TYPE = U
NORAD_CAT_ID   = 66605
ELEMENT_SET_NO = 999
REV_AT_EPOCH   = 351
BSTAR          = -.21762492E-1
MEAN_MOTION_DOT = -.1991975E-1
MEAN_MOTION_DDOT = 0

CCSDS_OMM_VERS = 2.0
CREATION_DATE  = 
ORIGINATOR     = 

OBJECT_NAME    = STARLINK-36063
OBJECT_ID      = 2025-270U
CENTER_NAME    = EARTH
REF_FRAME      = TEME
TIME_SYSTEM    = UTC
MEAN_ELEMENT_THEORY = SGP/SGP4

EPOCH          = 2025-12-07T06:00:04.999968
MEAN_MOTION    = 15.65722112
ECCENTRICITY   = .00015446
INCLINATION    = 42.9991
RA_OF_ASC_NODE = 224.9828
ARG_OF_PERICENTER = 260.1251
MEAN_ANOMALY   = 348.3907

EPHEMERIS_TYPE = 0
CLASSIFICATION_TYPE = U
NORAD_CAT_ID   = 66606
ELEMENT_SET_NO = 999
REV_AT_EPOCH   = 351
BSTAR          = -.2186808E-1
MEAN_MOTION_DOT = -.200081E-1
MEAN_MOTION_DDOT = 0

CCSDS_OMM_VERS = 2.0
CREATION_DATE  = 
ORIGINATOR     = 

OBJECT_NAME    = STARLINK-35993
OBJECT_ID      = 2025-270V
CENTER_NAME    = EARTH
REF_FRAME      = TEME
TIME_SYSTEM    = UTC
MEAN_ELEMENT_THEORY = SGP/SGP4

EPOCH          = 2025-12-07T06:00:04.999968
MEAN_MOTION    = 15.65716295
ECCENTRICITY   = .00015501
INCLINATION    = 42.9991
RA_OF_ASC_NODE = 224.9881
ARG_OF_PERICENTER = 257.8668
MEAN_ANOMALY   = 348.7308

EPHEMERIS_TYPE = 0
CLASSIFICATION_TYPE = U
NORAD_CAT_ID   = 66607
ELEMENT_SET_NO = 999
REV_AT_EPOCH   = 341
BSTAR          = -.21724953E-1
MEAN_MOTION_DOT = -.198889E-1
MEAN_MOTION_DDOT = 0

